{"type":"FeatureCollection","features":[{"type":"Feature","geometry":{"type":"Polygon","coordinates":[[[-70.503927,-33.400561],[-70.502546,-33.400403],[-70.500945,-33.400177],[-70.501128,-33.399858],[-70.502607,-33.399981],[-70.503923,-33.400088],[-70.503927,-33.400561]]]},"properties":{"Terminal":"San Carlos de Apoquindo","Punto de Regulacion":"SI"}},{"type":"Feature","geometry":{"type":"Polygon","coordinates":[[[-70.518787,-33.323331],[-70.518739,-33.32308],[-70.519438,-33.323176],[-70.519416,-33.323967],[-70.518885,-33.323969],[-70.518787,-33.323331]]]},"properties":{"Terminal":"La Dehesa","Punto de Regulacion":"SI"}},{"type":"Feature","geometry":{"type":"Polygon","coordinates":[[[-70.530432,-33.427182],[-70.530376,-33.430394],[-70.528952,-33.430241],[-70.528931,-33.427164],[-70.530432,-33.427182]]]},"properties":{"Terminal":"Nueva Bilbao"}},{"type":"Feature","geometry":{"type":"Polygon","coordinates":[[[-70.530764,-33.46242],[-70.531088,-33.462313],[-70.532137,-33.465127],[-70.531411,-33.465324],[-70.530882,-33.464203],[-70.530764,-33.46242]]]},"properties":{"Terminal":"José Arrieta (TCUV05)"}},{"type":"Feature","geometry":{"type":"Polygon","coordinates":[[[-70.531336,-33.465907],[-70.532173,-33.467313],[-70.53176,-33.467461],[-70.531302,-33.465926],[-70.531336,-33.465907]]]},"properties":{"Terminal":"Río Claro (TCUV 21)"}},{"type":"Feature","geometry":{"type":"Polygon","coordinates":[[[-70.712853,-33.609715],[-70.714066,-33.609964],[-70.714294,-33.610719],[-70.714436,-33.610981],[-70.714452,-33.611151],[-70.714302,-33.611296],[-70.714302,-33.611446],[-70.714593,-33.611466],[-70.714751,-33.612076],[-70.7142,-33.612214],[-70.713659,-33.613078],[-70.712629,-33.613325],[-70.712019,-33.613267],[-70.711894,-33.613854],[-70.711665,-33.61384],[-70.711919,-33.612967],[-70.712853,-33.609715]]]},"properties":{"Terminal":"Catemito"}},{"type":"Feature","geometry":{"type":"Polygon","coordinates":[[[-70.701609,-33.53717],[-70.699789,-33.538117],[-70.699585,-33.538201],[-70.698455,-33.536817],[-70.699199,-33.536489],[-70.700004,-33.537541],[-70.701466,-33.536986],[-70.701609,-33.53717]]]},"properties":{"Terminal":"Santa Margarita"}},{"type":"Feature","geometry":{"type":"Polygon","coordinates":[[[-70.703113,-33.532778],[-70.703527,-33.534106],[-70.702641,-33.534273],[-70.702589,-33.53405],[-70.702648,-33.533155],[-70.702653,-33.532916],[-70.703113,-33.532778]]]},"properties":{"Terminal":"Lo Espejo"}},{"type":"Feature","geometry":{"type":"Polygon","coordinates":[[[-70.801125,-33.520581],[-70.804511,-33.521111],[-70.803902,-33.523717],[-70.800617,-33.522485],[-70.801125,-33.520581]]]},"properties":{"Terminal":"El Conquistador (TCUV 19)"}},{"type":"Feature","geometry":{"type":"Polygon","coordinates":[[[-70.800789,-33.521455],[-70.800768,-33.521671],[-70.800695,-33.521649],[-70.800332,-33.521813],[-70.800559,-33.52214],[-70.800228,-33.523453],[-70.79949,-33.523444],[-70.799502,-33.522014],[-70.800272,-33.521422],[-70.800789,-33.521455]]]},"properties":{"Terminal":"Las Acacias"}},{"type":"Feature","geometry":{"type":"Polygon","coordinates":[[[-70.806624,-33.514386],[-70.806333,-33.515786],[-70.803253,-33.515349],[-70.802343,-33.515054],[-70.802702,-33.513674],[-70.806624,-33.514386]]]},"properties":{"Terminal":"5 Poniente"}},{"type":"Feature","geometry":{"type":"Polygon","coordinates":[[[-70.803688,-33.512026],[-70.803674,-33.511848],[-70.803282,-33.511796],[-70.803645,-33.509988],[-70.804823,-33.510134],[-70.804728,-33.510738],[-70.806004,-33.510876],[-70.805771,-33.512295],[-70.803688,-33.512026]]]},"properties":{"Terminal":"Lourdes"}},{"type":"Feature","geometry":{"type":"Polygon","coordinates":[[[-70.634823,-33.607021],[-70.634984,-33.608872],[-70.627498,-33.609475],[-70.627495,-33.608554],[-70.62709,-33.608564],[-70.627145,-33.607742],[-70.634823,-33.607021]]]},"properties":{"Terminal":"Santa Rosa (TCUV 38)"}},{"type":"Feature","geometry":{"type":"Polygon","coordinates":[[[-70.631324,-33.637154],[-70.632481,-33.637085],[-70.632392,-33.639012],[-70.630794,-33.639044],[-70.63052,-33.637206],[-70.631324,-33.637154]]]},"properties":{"Terminal":"El Retiro (TCUV 30)"}},{"type":"Feature","geometry":{"type":"Polygon","coordinates":[[[-70.61106,-33.632914],[-70.610893,-33.63409],[-70.608486,-33.633893],[-70.608765,-33.632652],[-70.61106,-33.632914]]]},"properties":{"Terminal":"Juanita (TCUV10)"}},{"type":"Feature","geometry":{"type":"Polygon","coordinates":[[[-70.555183,-33.602882],[-70.554171,-33.604397],[-70.55256,-33.604032],[-70.553132,-33.603021],[-70.553862,-33.602638],[-70.554212,-33.602248],[-70.554889,-33.602004],[-70.555389,-33.602133],[-70.554989,-33.602756],[-70.555183,-33.602882]]]},"properties":{"Terminal":"Pie Andino (TCUV13)"}},{"type":"Feature","geometry":{"type":"Polygon","coordinates":[[[-70.552606,-33.604032],[-70.554163,-33.604409],[-70.552437,-33.60647],[-70.549852,-33.606275],[-70.549891,-33.606199],[-70.552606,-33.604032]]]},"properties":{"Terminal":"Pie Andino (TCUV 32)"}},{"type":"Feature","geometry":{"type":"Polygon","coordinates":[[[-70.655422,-33.586153],[-70.656073,-33.58616],[-70.656227,-33.587685],[-70.655534,-33.587727],[-70.655422,-33.586153]]]},"properties":{"Terminal":"Lo Blanco 2 (TCUV 27)"}},{"type":"Feature","geometry":{"type":"Polygon","coordinates":[[[-70.638911,-33.379524],[-70.639167,-33.38021],[-70.635963,-33.381063],[-70.635915,-33.380057],[-70.638911,-33.379524]]]},"properties":{"Terminal":"Santa Clara (TCUV04)"}},{"type":"Feature","geometry":{"type":"Polygon","coordinates":[[[-70.638571,-33.378766],[-70.638887,-33.379542],[-70.635926,-33.380043],[-70.632864,-33.380421],[-70.632943,-33.37955],[-70.63611,-33.379167],[-70.638571,-33.378766]]]},"properties":{"Terminal":"Recoleta (TCUV 40)"}},{"type":"Feature","geometry":{"type":"Polygon","coordinates":[[[-70.647684,-33.374644],[-70.647963,-33.375465],[-70.647009,-33.375751],[-70.646539,-33.375881],[-70.646432,-33.375557],[-70.647684,-33.374644]]]},"properties":{"Terminal":"Aguirre Luco (TCUV06)"}},{"type":"Feature","geometry":{"type":"Polygon","coordinates":[[[-70.677405,-33.354853],[-70.677033,-33.355746],[-70.675476,-33.355761],[-70.675485,-33.354791],[-70.677405,-33.354853]]]},"properties":{"Terminal":"Santa Marta (TCUV09)"}},{"type":"Feature","geometry":{"type":"Polygon","coordinates":[[[-70.52221,-33.484372],[-70.523238,-33.482241],[-70.523878,-33.482547],[-70.524279,-33.484365],[-70.523301,-33.484759],[-70.52221,-33.484372]]]},"properties":{"Terminal":"Álvaro Casanova (TCUV14)"}},{"type":"Feature","geometry":{"type":"Polygon","coordinates":[[[-70.524548,-33.485608],[-70.522194,-33.486726],[-70.521321,-33.486863],[-70.521011,-33.486832],[-70.522246,-33.484381],[-70.52333,-33.484768],[-70.524302,-33.484378],[-70.524548,-33.485608]]]},"properties":{"Terminal":"Los Espinos"}},{"type":"Feature","geometry":{"type":"Polygon","coordinates":[[[-70.564703,-33.504479],[-70.562424,-33.504915],[-70.562399,-33.503582],[-70.564389,-33.503156],[-70.564703,-33.504479]]]},"properties":{"Terminal":"Las Torres (TCUV15)"}},{"type":"Feature","geometry":{"type":"Polygon","coordinates":[[[-70.551143,-33.509985],[-70.55145,-33.512135],[-70.550792,-33.51214],[-70.550592,-33.510049],[-70.551143,-33.509985]]]},"properties":{"Terminal":"Los Robles (TCUV 50)"}},{"type":"Feature","geometry":{"type":"Polygon","coordinates":[[[-70.54789,-33.514355],[-70.547689,-33.514765],[-70.54659,-33.514451],[-70.546799,-33.514095],[-70.54789,-33.514355]]]},"properties":{"Terminal":"Las Perdices (TCUV 20)"}},{"type":"Feature","geometry":{"type":"Polygon","coordinates":[[[-70.556417,-33.51772],[-70.5573,-33.517907],[-70.556872,-33.519327],[-70.556325,-33.519221],[-70.556297,-33.518756],[-70.55625,-33.518243],[-70.556417,-33.51772]]]},"properties":{"Terminal":"María Angélica (TCUV18)"}},{"type":"Feature","geometry":{"type":"Polygon","coordinates":[[[-70.79289,-33.43901],[-70.792992,-33.440967],[-70.792371,-33.44112],[-70.792389,-33.441261],[-70.790406,-33.441536],[-70.789276,-33.440662],[-70.790431,-33.439536],[-70.79136,-33.439063],[-70.79289,-33.43901]]]},"properties":{"Terminal":"El Roble (TCUV16)"}},{"type":"Feature","geometry":{"type":"Polygon","coordinates":[[[-70.774826,-33.444025],[-70.775377,-33.444047],[-70.775971,-33.444091],[-70.776146,-33.444194],[-70.776091,-33.444661],[-70.775828,-33.44512],[-70.775793,-33.445351],[-70.775196,-33.445387],[-70.774826,-33.444025]]]},"properties":{"Terminal":"Los Sauces"}},{"type":"Feature","geometry":{"type":"Polygon","coordinates":[[[-70.77568,-33.443251],[-70.7793,-33.443089],[-70.779485,-33.4432],[-70.77949,-33.443381],[-70.779169,-33.443819],[-70.775695,-33.443918],[-70.77568,-33.443251]]]},"properties":{"Terminal":"Los Lingues (TCUV 49)"}},{"type":"Feature","geometry":{"type":"Polygon","coordinates":[[[-70.720265,-33.456297],[-70.720404,-33.456944],[-70.719557,-33.45711],[-70.719422,-33.456502],[-70.719786,-33.456418],[-70.720265,-33.456297]]]},"properties":{"Terminal":"Las Araucarias"}},{"type":"Feature","geometry":{"type":"Polygon","coordinates":[[[-70.767671,-33.360745],[-70.768923,-33.361033],[-70.766648,-33.363961],[-70.76541,-33.363728],[-70.767671,-33.360745]]]},"properties":{"Terminal":"Lo Marcoleta (TCUV 42)"}},{"type":"Feature","geometry":{"type":"Polygon","coordinates":[[[-70.774496,-33.411648],[-70.774756,-33.412384],[-70.773127,-33.412774],[-70.772939,-33.412127],[-70.774496,-33.411648]]]},"properties":{"Terminal":"El Retiro"}},{"type":"Feature","geometry":{"type":"Polygon","coordinates":[[[-70.705646,-33.541441],[-70.705931,-33.541783],[-70.704434,-33.542339],[-70.704273,-33.542124],[-70.705646,-33.541441]]]},"properties":{"Terminal":"Santa Margarita (TCUV03)"}},{"type":"Feature","geometry":{"type":"Polygon","coordinates":[[[-70.731768,-33.402064],[-70.732507,-33.40356],[-70.732534,-33.404136],[-70.732284,-33.40419],[-70.731889,-33.403483],[-70.73111,-33.403799],[-70.730503,-33.403351],[-70.731347,-33.40225],[-70.731768,-33.402064]]]},"properties":{"Terminal":"Condell (TCUV02)"}},{"type":"Feature","geometry":{"type":"Polygon","coordinates":[[[-70.767719,-33.421444],[-70.768462,-33.423513],[-70.766069,-33.423089],[-70.766482,-33.421689],[-70.767236,-33.421674],[-70.767217,-33.421545],[-70.767719,-33.421444]]]},"properties":{"Terminal":"Las Parras"}},{"type":"Feature","geometry":{"type":"Polygon","coordinates":[[[-70.761597,-33.469761],[-70.764322,-33.471005],[-70.763826,-33.471822],[-70.761714,-33.470843],[-70.762087,-33.470077],[-70.761519,-33.469849],[-70.761597,-33.469761]]]},"properties":{"Terminal":"Los Nogales"}},{"type":"Feature","geometry":{"type":"Polygon","coordinates":[[[-70.557523,-33.56098],[-70.558083,-33.561091],[-70.557914,-33.561259],[-70.558095,-33.56141],[-70.557127,-33.562406],[-70.556469,-33.561916],[-70.557433,-33.560963],[-70.557523,-33.56098]]]},"properties":{"Terminal":"Camilo Henríquez (TCUV01)"}},{"type":"Feature","geometry":{"type":"Polygon","coordinates":[[[-70.603559,-33.59329],[-70.603458,-33.593796],[-70.602435,-33.593674],[-70.602524,-33.593161],[-70.603559,-33.59329]]]},"properties":{"Terminal":"La Primavera (TCUV11)"}},{"type":"Feature","geometry":{"type":"Polygon","coordinates":[[[-70.516445,-33.60689],[-70.516952,-33.607097],[-70.516803,-33.607389],[-70.517298,-33.607575],[-70.517093,-33.607984],[-70.516046,-33.607612],[-70.516445,-33.60689]]]},"properties":{"Terminal":"Los Tilos (TCUV12)"}},{"type":"Feature","geometry":{"type":"Polygon","coordinates":[[[-70.761979,-33.375244],[-70.761481,-33.376148],[-70.756836,-33.374412],[-70.756694,-33.374144],[-70.758593,-33.37367],[-70.758751,-33.373948],[-70.759005,-33.374083],[-70.761979,-33.375244]]]},"properties":{"Terminal":"Lo Echevers (TCUV17)"}},{"type":"Feature","geometry":{"type":"Polygon","coordinates":[[[-70.750946,-33.426855],[-70.750597,-33.428405],[-70.749533,-33.428281],[-70.749496,-33.427012],[-70.750946,-33.426855]]]},"properties":{"Terminal":"La Estrella (TCUV 22)"}},{"type":"Feature","geometry":{"type":"Polygon","coordinates":[[[-70.793824,-33.544872],[-70.794899,-33.543972],[-70.796512,-33.545146],[-70.797689,-33.545946],[-70.796774,-33.546878],[-70.793915,-33.545015],[-70.793824,-33.544872]]]},"properties":{"Terminal":"El Bosque (TCUV 23)"}},{"type":"Feature","geometry":{"type":"Polygon","coordinates":[[[-70.788712,-33.542771],[-70.787271,-33.543896],[-70.78672,-33.543437],[-70.788122,-33.542367],[-70.788712,-33.542771]]]},"properties":{"Terminal":"René Olivares"}},{"type":"Feature","geometry":{"type":"Polygon","coordinates":[[[-70.789592,-33.543379],[-70.788353,-33.544335],[-70.788113,-33.544439],[-70.787278,-33.543894],[-70.788714,-33.542767],[-70.789592,-33.543379]]]},"properties":{"Terminal":"Los Peumos"}},{"type":"Feature","geometry":{"type":"Polygon","coordinates":[[[-70.780805,-33.554798],[-70.779811,-33.555126],[-70.779468,-33.554372],[-70.780488,-33.554081],[-70.780805,-33.554798]]]},"properties":{"Terminal":"Los Talaveras (TCUV 51)"}},{"type":"Feature","geometry":{"type":"Polygon","coordinates":[[[-70.757752,-33.546112],[-70.756514,-33.546754],[-70.755914,-33.545915],[-70.757179,-33.545252],[-70.757752,-33.546112]]]},"properties":{"Terminal":"Los Pinos (TCUV 46)"}},{"type":"Feature","geometry":{"type":"Polygon","coordinates":[[[-70.607256,-33.580552],[-70.606904,-33.582383],[-70.606281,-33.582294],[-70.606377,-33.581529],[-70.606635,-33.581578],[-70.606827,-33.580502],[-70.607256,-33.580552]]]},"properties":{"Terminal":"Gabriela (TCUV 28)"}},{"type":"Feature","geometry":{"type":"Polygon","coordinates":[[[-70.660394,-33.585709],[-70.660688,-33.587223],[-70.660087,-33.587258],[-70.659805,-33.58575],[-70.660394,-33.585709]]]},"properties":{"Terminal":"Lo Blanco 1 (TCUV 41)"}},{"type":"Feature","geometry":{"type":"Polygon","coordinates":[[[-70.682824,-33.3614],[-70.683044,-33.363352],[-70.682386,-33.363421],[-70.681596,-33.363257],[-70.682056,-33.361452],[-70.682824,-33.3614]]]},"properties":{"Terminal":"Los Libertadores (TCUV 33)"}},{"type":"Feature","geometry":{"type":"Polygon","coordinates":[[[-70.694184,-33.598852],[-70.692223,-33.599763],[-70.691481,-33.59844],[-70.693771,-33.597735],[-70.694184,-33.598852]]]},"properties":{"Terminal":"San José (TCUV 31)"}},{"type":"Feature","geometry":{"type":"Polygon","coordinates":[[[-70.703735,-33.508952],[-70.704189,-33.509431],[-70.703076,-33.509838],[-70.702471,-33.508979],[-70.70339,-33.508537],[-70.703735,-33.508952]]]},"properties":{"Terminal":"Cerrillos (TCUV 34)"}},{"type":"Feature","geometry":{"type":"Polygon","coordinates":[[[-70.674036,-33.470717],[-70.673967,-33.472637],[-70.672992,-33.473409],[-70.673017,-33.47069],[-70.674036,-33.470717]]]},"properties":{"Terminal":"San Alfonso (TCUV 35)"}},{"type":"Feature","geometry":{"type":"Polygon","coordinates":[[[-70.574324,-33.612411],[-70.574083,-33.613215],[-70.574199,-33.613676],[-70.574494,-33.61402],[-70.574714,-33.614381],[-70.573714,-33.614314],[-70.573096,-33.614142],[-70.572485,-33.61402],[-70.572814,-33.612492],[-70.574324,-33.612411]]]},"properties":{"Terminal":"Concha y Toro (TCUV 36)"}},{"type":"Feature","geometry":{"type":"Polygon","coordinates":[[[-70.684397,-33.599684],[-70.684825,-33.601348],[-70.683443,-33.601575],[-70.683031,-33.599942],[-70.684397,-33.599684]]]},"properties":{"Terminal":"Ducaud (TCUV 39)"}},{"type":"Feature","geometry":{"type":"Polygon","coordinates":[[[-70.707872,-33.567173],[-70.708864,-33.567147],[-70.708771,-33.568842],[-70.70766,-33.568916],[-70.707872,-33.567173]]]},"properties":{"Terminal":"La Vara (TCUV 45)"}},{"type":"Feature","geometry":{"type":"Polygon","coordinates":[[[-70.545289,-33.533162],[-70.545707,-33.533137],[-70.545441,-33.534213],[-70.544948,-33.535341],[-70.544418,-33.535287],[-70.544956,-33.534055],[-70.545289,-33.533162]]]},"properties":{"Terminal":"Jardín Alto","Punto de Regulacion":"SI"}},{"type":"Feature","geometry":{"type":"Polygon","coordinates":[[[-70.553541,-33.532616],[-70.55442,-33.532721],[-70.554366,-33.533741],[-70.553164,-33.533741],[-70.553227,-33.533347],[-70.553328,-33.533067],[-70.553541,-33.532616]]]},"properties":{"Terminal":"Jardín Alto (TCUV 29)"}},{"type":"Feature","geometry":{"type":"Polygon","coordinates":[[[-70.565792,-33.558626],[-70.565358,-33.560233],[-70.5647,-33.560125],[-70.565198,-33.558507],[-70.565792,-33.558626]]]},"properties":{"Terminal":"Diego Portales (TCUV 24)"}},{"type":"Feature","geometry":{"type":"Polygon","coordinates":[[[-70.77211,-33.427368],[-70.772152,-33.428457],[-70.771473,-33.428475],[-70.771081,-33.428673],[-70.770925,-33.42872],[-70.770649,-33.428744],[-70.77071,-33.427403],[-70.771297,-33.427394],[-70.77211,-33.427368]]]},"properties":{"Terminal":"José Manuel Guzmán (TCUV 25)"}},{"type":"Feature","geometry":{"type":"Polygon","coordinates":[[[-70.604852,-33.562657],[-70.604593,-33.564546],[-70.603703,-33.564516],[-70.603995,-33.562607],[-70.604852,-33.562657]]]},"properties":{"Terminal":"Miguel Mujica (TCUV 44)"}},{"type":"Feature","geometry":{"type":"Polygon","coordinates":[[[-70.606268,-33.598016],[-70.605922,-33.599055],[-70.605786,-33.599136],[-70.602848,-33.59892],[-70.603105,-33.597616],[-70.605284,-33.597897],[-70.606268,-33.598016]]]},"properties":{"Terminal":"Amador Neghme (TCUV 48)"}},{"type":"Feature","geometry":{"type":"Polygon","coordinates":[[[-70.697322,-33.623607],[-70.696096,-33.62405],[-70.695051,-33.621937],[-70.69621,-33.621423],[-70.697322,-33.623607]]]},"properties":{"Terminal":"Rinconada de Nos (TCUV 43)"}},{"type":"Feature","geometry":{"type":"Polygon","coordinates":[[[-70.715329,-33.521036],[-70.716355,-33.520697],[-70.716764,-33.521386],[-70.715709,-33.521816],[-70.715329,-33.521036]]]},"properties":{"Terminal":"Plaza Oeste"}},{"type":"Feature","geometry":{"type":"Polygon","coordinates":[[[-70.769828,-33.537651],[-70.770223,-33.538027],[-70.769214,-33.538487],[-70.768863,-33.538102],[-70.769828,-33.537651]]]},"properties":{"Terminal":"San Juan (TCUV 52)"}},{"type":"Feature","geometry":{"type":"Polygon","coordinates":[[[-70.732115,-33.481664],[-70.732209,-33.482403],[-70.730036,-33.482335],[-70.729015,-33.482567],[-70.728919,-33.482149],[-70.732115,-33.481664]]]},"properties":{"Terminal":"Las Torres"}},{"type":"Feature","geometry":{"type":"Polygon","coordinates":[[[-70.73352,-33.488804],[-70.734118,-33.489299],[-70.733956,-33.489443],[-70.733827,-33.489356],[-70.733414,-33.488848],[-70.73352,-33.488804]]]},"properties":{"Terminal":"Los Presidentes"}},{"type":"Feature","geometry":{"type":"Polygon","coordinates":[[[-70.781707,-33.433261],[-70.783701,-33.4338],[-70.783032,-33.434936],[-70.781171,-33.434003],[-70.781707,-33.433261]]]},"properties":{"Terminal":"Las Palmas"}},{"type":"Feature","geometry":{"type":"Polygon","coordinates":[[[-70.751626,-33.370154],[-70.752137,-33.371878],[-70.751136,-33.372118],[-70.750439,-33.370254],[-70.751626,-33.370154]]]},"properties":{"Terminal":"Terminal El Mañio"}},{"type":"Feature","geometry":{"type":"Polygon","coordinates":[[[-70.764848,-33.474824],[-70.765099,-33.474967],[-70.764962,-33.475142],[-70.76662,-33.475919],[-70.765903,-33.477414],[-70.763593,-33.476303],[-70.764848,-33.474824]]]},"properties":{"Terminal":"Los Agricultores"}},{"type":"Feature","geometry":{"type":"Polygon","coordinates":[[[-70.702182,-33.524015],[-70.702601,-33.524066],[-70.702561,-33.524987],[-70.701829,-33.524711],[-70.702182,-33.524015]]]},"properties":{"Terminal":"Pedro Lira"}},{"type":"Feature","geometry":{"type":"Polygon","coordinates":[[[-70.599128,-33.599778],[-70.598897,-33.600915],[-70.597375,-33.600717],[-70.597565,-33.599614],[-70.599128,-33.599778]]]},"properties":{"Terminal":"Creta","Punto de Regulacion":"SI"}},{"type":"Feature","geometry":{"type":"Polygon","coordinates":[[[-70.65536,-33.37345],[-70.656055,-33.37497],[-70.654843,-33.375414],[-70.654144,-33.373819],[-70.65536,-33.37345]]]},"properties":{"Terminal":"El Rosal"}},{"type":"Feature","geometry":{"type":"Polygon","coordinates":[[[-70.497273,-33.35231],[-70.498298,-33.352609],[-70.498097,-33.353029],[-70.497799,-33.352953],[-70.497607,-33.353002],[-70.497273,-33.353196],[-70.497183,-33.353193],[-70.4971,-33.353081],[-70.497273,-33.35231]]]},"properties":{"Terminal":"Cerro 18","Punto de Regulacion":"SI"}},{"type":"Feature","geometry":{"type":"Polygon","coordinates":[[[-70.581485,-33.412839],[-70.583174,-33.413535],[-70.583511,-33.413027],[-70.586362,-33.414003],[-70.585791,-33.415249],[-70.583086,-33.414296],[-70.583262,-33.41388],[-70.581301,-33.413104],[-70.581485,-33.412839]]]},"properties":{"Terminal":"Escuela Militar","Punto de Regulacion":"SI"}},{"type":"Feature","geometry":{"type":"Polygon","coordinates":[[[-70.51762,-33.372786],[-70.518936,-33.373401],[-70.51889,-33.37349],[-70.518758,-33.373455],[-70.518016,-33.373518],[-70.51771,-33.373497],[-70.517245,-33.373369],[-70.51762,-33.372786]]]},"properties":{"Terminal":"Cantagallo","Punto de Regulacion":"SI"}},{"type":"Feature","geometry":{"type":"Polygon","coordinates":[[[-70.493184,-33.363716],[-70.493398,-33.362881],[-70.493547,-33.362891],[-70.494009,-33.363594],[-70.493515,-33.363695],[-70.493255,-33.363741],[-70.493179,-33.363745],[-70.493184,-33.363716]]]},"properties":{"Terminal":"Plaza San Enrique ","Punto de Regulacion":"SI"}},{"type":"Feature","geometry":{"type":"Polygon","coordinates":[[[-70.597266,-33.519382],[-70.59773,-33.518776],[-70.599177,-33.519474],[-70.599641,-33.519621],[-70.599684,-33.519794],[-70.599612,-33.520066],[-70.599438,-33.520277],[-70.599216,-33.520296],[-70.598262,-33.51988],[-70.597266,-33.519382]]]},"properties":{"Terminal":"Intermodal Bellavista La Florida","Punto de Regulacion":"SI"}},{"type":"Feature","geometry":{"type":"Polygon","coordinates":[[[-70.664107,-33.537737],[-70.664302,-33.537884],[-70.664536,-33.538852],[-70.662994,-33.539169],[-70.66267,-33.538136],[-70.664107,-33.537737]]]},"properties":{"Terminal":"Intermodal La Cisterna","Punto de Regulacion":"SI"}},{"type":"Feature","geometry":{"type":"Polygon","coordinates":[[[-70.648705,-33.379638],[-70.649072,-33.380398],[-70.649154,-33.380952],[-70.644955,-33.381115],[-70.648705,-33.379638]]]},"properties":{"Terminal":"Intermodal Vespucio Norte","Punto de Regulacion":"SI"}},{"type":"Feature","geometry":{"type":"Polygon","coordinates":[[[-70.660805,-33.650762],[-70.661425,-33.65206],[-70.661127,-33.652653],[-70.660972,-33.652907],[-70.659814,-33.650939],[-70.660805,-33.650762]]]},"properties":{"Terminal":"Acceso Sur","Punto de Regulacion":"SI"}},{"type":"Feature","geometry":{"type":"Polygon","coordinates":[[[-70.64994,-33.475742],[-70.649895,-33.476628],[-70.649201,-33.476665],[-70.64918,-33.476316],[-70.649186,-33.476189],[-70.649212,-33.476032],[-70.649277,-33.475706],[-70.64994,-33.475742]]]},"properties":{"Terminal":"Intermodal Franklin","Punto de Regulacion":"SI"}},{"type":"Feature","geometry":{"type":"Polygon","coordinates":[[[-70.660756,-33.516395],[-70.66126,-33.517394],[-70.661069,-33.517606],[-70.66098,-33.517707],[-70.660741,-33.517153],[-70.660144,-33.517326],[-70.659826,-33.516716],[-70.660756,-33.516395]]]},"properties":{"Terminal":"Intermodal Lo Ovalle","Punto de Regulacion":"SI"}},{"type":"Feature","geometry":{"type":"Polygon","coordinates":[[[-70.717221,-33.45695],[-70.717478,-33.457556],[-70.713085,-33.458348],[-70.713168,-33.458125],[-70.713288,-33.457928],[-70.7134,-33.457796],[-70.713624,-33.457641],[-70.717221,-33.45695]]]},"properties":{"Terminal":"Intermodal Pajaritos","Punto de Regulacion":"SI"}},{"type":"Feature","geometry":{"type":"Polygon","coordinates":[[[-70.797452,-33.412036],[-70.799551,-33.412113],[-70.799479,-33.412793],[-70.797613,-33.412713],[-70.797481,-33.412693],[-70.797439,-33.412583],[-70.797455,-33.412097],[-70.797452,-33.412036]]]},"properties":{"Terminal":"Intermodal Aeropuerto","Punto de Regulacion":"SI"}},{"type":"Feature","geometry":{"type":"Polygon","coordinates":[[[-70.628478,-33.454664],[-70.628371,-33.455075],[-70.628022,-33.455048],[-70.627567,-33.455061],[-70.627692,-33.454522],[-70.628478,-33.454664]]]},"properties":{"Terminal":"Irarrázaval","Punto de Regulacion":"SI"}},{"type":"Feature","geometry":{"type":"Polygon","coordinates":[[[-70.627305,-33.455505],[-70.627404,-33.455532],[-70.627236,-33.45617],[-70.627121,-33.45615],[-70.627305,-33.455505]]]},"properties":{"Terminal":"Irrarázaval v2","Punto de Regulacion":"SI"}},{"type":"Feature","geometry":{"type":"Polygon","coordinates":[[[-70.690104,-33.364473],[-70.690375,-33.364494],[-70.690303,-33.365229],[-70.693074,-33.365188],[-70.693153,-33.362685],[-70.693766,-33.362711],[-70.693573,-33.365583],[-70.690402,-33.365752],[-70.690258,-33.365699],[-70.690125,-33.365605],[-70.690053,-33.365418],[-70.690104,-33.364473]]]},"properties":{"Terminal":"Intermodal Los Libertadores","Punto de Regulacion":"SI"}},{"type":"Feature","geometry":{"type":"Polygon","coordinates":[[[-70.791277,-33.48341],[-70.791572,-33.483941],[-70.791159,-33.484049],[-70.790886,-33.483535],[-70.791277,-33.48341]]]},"properties":{"Terminal":"La Farfana","Punto de Regulacion":"SI"}},{"type":"Feature","geometry":{"type":"Polygon","coordinates":[[[-70.696764,-33.385012],[-70.697032,-33.385602],[-70.696571,-33.385767],[-70.696244,-33.385066],[-70.696585,-33.38504],[-70.696764,-33.385012]]]},"properties":{"Terminal":"Huamachuco","Punto de Regulacion":"SI"}},{"type":"Feature","geometry":{"type":"Polygon","coordinates":[[[-70.525202,-33.478029],[-70.525369,-33.479323],[-70.524982,-33.479392],[-70.524743,-33.479431],[-70.524634,-33.479444],[-70.524574,-33.479448],[-70.524538,-33.479442],[-70.525202,-33.478029]]]},"properties":{"Terminal":"Los Maitenes (TCUV 47)"}},{"type":"Feature","geometry":{"type":"Polygon","coordinates":[[[-70.62235,-33.387012],[-70.622882,-33.388592],[-70.621824,-33.388854],[-70.621363,-33.387613],[-70.621248,-33.387536],[-70.621549,-33.387349],[-70.622005,-33.38721],[-70.62235,-33.387012]]]},"properties":{"Terminal":"El Salto (TCUV08)"}},{"type":"Feature","geometry":{"type":"Polygon","coordinates":[[[-70.765525,-33.362727],[-70.765302,-33.363264],[-70.763247,-33.362806],[-70.762759,-33.362921],[-70.761916,-33.362668],[-70.762423,-33.362103],[-70.765525,-33.362727]]]},"properties":{"Terminal":"Colo Colo (TCUV07)"}},{"type":"Feature","geometry":{"type":"Polygon","coordinates":[[[-70.818971,-33.499673],[-70.820002,-33.500015],[-70.821734,-33.50209],[-70.820785,-33.502352],[-70.818649,-33.499936],[-70.818971,-33.499673]]]},"properties":{"Terminal":"Lourdes Metbus"}},{"type":"Feature","properties":{"Terminal":"Plaza San Enrique v2","Punto de Regulacion":"SI"},"geometry":{"type":"Polygon","coordinates":[[[-70.494981,-33.361851],[-70.49673,-33.361826],[-70.4971,-33.361861],[-70.497417,-33.361965],[-70.497265,-33.362054],[-70.497081,-33.361991],[-70.496721,-33.361969],[-70.496095,-33.361951],[-70.495477,-33.361963],[-70.494952,-33.361958],[-70.494981,-33.361851]]]}}]}